NORAD_CAT_ID,OBJECT_NAME,OBJECT_TYPE,EPOCH,MEAN_MOTION,ECCENTRICITY,INCLINATION,RA_OF_ASC_NODE,ARG_OF_PERICENTER,MEAN_ANOMALY,BSTAR,MEAN_MOTION_DOT,MEAN_MOTION_DDOT,TLE_LINE0,TLE_LINE1,TLE_LINE2,SEMIMAJOR_AXIS,PERIOD,APOGEE,PERIGEE,DECAYED
51736.0,STARLINK-3447,PAYLOAD,2023-09-22 14:00:01,15.07256047,0.0001286,53.2174,35.4082,92.1179,327.9806,-0.0053826,-0.00081398,0.0,0 STARLINK-3447,1 51736U 22016Y   23265.58334491 -.00081398  00000-0 -53826-2 0  9995,2 51736  53.2174  35.4082 0001286  92.1179 327.9806 15.07256047  5764,6922.726,95.538,545.481,543.701,0.0
51736.0,STARLINK-3447,PAYLOAD,2023-09-22 22:00:00,15.07189698,0.0001212,53.2173,33.9157,91.5281,338.2346,0.00037134,5.371e-05,0.0,0 STARLINK-3447,1 51736U 22016Y   23265.91667824  .00005371  00000-0  37134-3 0  9991,2 51736  53.2173  33.9157 0001212  91.5281 338.2346 15.07189698 89016,6922.929,95.542,545.633,543.955,0.0
51736.0,STARLINK-3447,PAYLOAD,2023-09-23 13:36:26,15.0721547,0.0001195,53.2179,31.0014,102.4949,257.6176,0.0005332,7.844e-05,0.0,0 STARLINK-3447,1 51736U 22016Y   23266.56697127  .00007844  00000-0  53320-3 0  9994,2 51736  53.2179  31.0014 0001195 102.4949 257.6176 15.07215470 87972,6922.85,95.54,545.543,543.888,0.0
51736.0,STARLINK-3447,PAYLOAD,2023-09-23 15:11:55,15.0721646,0.0001144,53.2178,30.7054,94.1612,265.951,0.00063113,9.339e-05,0.0,0 STARLINK-3447,1 51736U 22016Y   23266.63328340  .00009339  00000-0  63113-3 0  9992,2 51736  53.2178  30.7054 0001144  94.1612 265.9510 15.07216460 89111,6922.847,95.54,545.504,543.92,0.0
51736.0,STARLINK-3447,PAYLOAD,2023-09-24 08:42:18,15.07208713,0.0001246,53.2174,27.4403,83.0897,277.0236,0.00018935,2.6e-05,0.0,0 STARLINK-3447,1 51736U 22016Y   23267.36271528  .00002600  00000-0  18935-3 0  9994,2 51736  53.2174  27.4403 0001246  83.0897 277.0236 15.07208713 89226,6922.871,95.541,545.599,543.873,0.0
51736.0,STARLINK-3447,PAYLOAD,2023-09-24 13:28:46,15.07211052,0.0001273,53.2174,26.5494,81.2555,278.8581,0.00018168,2.484e-05,0.0,0 STARLINK-3447,1 51736U 22016Y   23267.56165012  .00002484  00000-0  18168-3 0  9994,2 51736  53.2174  26.5494 0001273  81.2555 278.8581 15.07211052 88127,6922.864,95.541,545.61,543.848,0.0
51736.0,STARLINK-3447,PAYLOAD,2023-09-25 13:21:06,15.07215876,0.0001477,53.2182,22.0953,103.9244,256.1912,0.00022811,3.191e-05,0.0,0 STARLINK-3447,1 51736U 22016Y   23268.55632429  .00003191  00000-0  22811-3 0  9991,2 51736  53.2182  22.0953 0001477 103.9244 256.1912 15.07215876 88271,6922.849,95.54,545.737,543.692,0.0
51736.0,STARLINK-3447,PAYLOAD,2023-09-25 14:56:35,15.07220251,0.0001276,53.2174,21.7992,98.8534,261.2602,0.00031849,4.57e-05,0.0,0 STARLINK-3447,1 51736U 22016Y   23268.62263432  .00004570  00000-0  31849-3 0  9996,2 51736  53.2174  21.7992 0001276  98.8534 261.2602 15.07220251 89415,6922.836,95.54,545.584,543.817,0.0
51736.0,STARLINK-3447,PAYLOAD,2023-09-26 11:37:41,15.07455081,0.0002696,53.2185,17.9372,103.2635,256.8657,0.0031819,0.0004882,0.0,0 STARLINK-3447,1 51736U 22016Y   23269.48450443  .00048820  00000-0  31819-2 0  9993,2 51736  53.2185  17.9372 0002696 103.2635 256.8657 15.07455081 89541,6922.117,95.525,545.848,542.116,0.0
51736.0,STARLINK-3447,PAYLOAD,2023-09-26 13:13:09,15.07459188,0.0002978,53.2188,17.6405,116.8695,243.2602,0.0030408,0.00046634,0.0,0 STARLINK-3447,1 51736U 22016Y   23269.55080238  .00046634  00000-0  30408-2 0  9996,2 51736  53.2188  17.6405 0002978 116.8695 243.2602 15.07459188 88425,6922.104,95.525,546.031,541.908,0.0
51736.0,STARLINK-3447,PAYLOAD,2023-09-26 19:34:48,15.07880256,0.0001919,53.2185,16.451,42.988,317.1262,0.010844,0.00171976,0.0,0 STARLINK-3447,1 51736U 22016Y   23269.81584170  .00171976  00000-0  10844-1 0  9998,2 51736  53.2185  16.4510 0001919  42.9880 317.1262 15.07880256 89591,6920.815,95.498,544.009,541.352,0.0
51736.0,STARLINK-3447,PAYLOAD,2023-09-27 13:04:16,15.08477722,0.0001221,53.2184,13.1797,87.1116,273.0016,0.013753,0.00223394,0.0,0 STARLINK-3447,1 51736U 22016Y   23270.54464077  .00223394  00000-0  13753-1 0  9997,2 51736  53.2184  13.1797 0001221  87.1116 273.0016 15.08477722 88575,6918.988,95.46,541.698,540.008,0.0
51736.0,STARLINK-3447,PAYLOAD,2023-09-27 22:00:00,15.08849829,0.0001066,53.2174,11.5112,89.1731,133.0506,-0.0019408,-0.00031051,0.0,0 STARLINK-3447,1 51736U 22016Y   23270.91667824 -.00031051  00000-0 -19408-2 0  9996,2 51736  53.2174  11.5112 0001066  89.1731 133.0506 15.08849829 89761,6917.85,95.437,540.453,538.978,0.0
51736.0,STARLINK-3447,PAYLOAD,2023-09-28 14:00:01,15.08860773,0.0001306,53.2177,8.5193,79.746,165.7041,-0.0029404,-0.00046807,0.0,0 STARLINK-3447,1 51736U 22016Y   23271.58335648 -.00046807  00000-0 -29404-2 0  9998,2 51736  53.2177   8.5193 0001306  79.7460 165.7041 15.08860773 89868,6917.817,95.436,540.585,538.778,0.0
51736.0,STARLINK-3447,PAYLOAD,2023-09-28 16:00:30,15.08834983,0.0001309,53.2179,8.144,78.6091,261.5737,-8.4051e-05,-1.625e-05,0.0,0 STARLINK-3447,1 51736U 22016Y   23271.66702546 -.00001625  00000-0 -84051-4 0  9992,2 51736  53.2179   8.1440 0001309  78.6091 261.5737 15.08834983  5793,6917.896,95.438,540.666,538.855,0.0
51736.0,STARLINK-3447,PAYLOAD,2023-09-28 22:00:01,15.08843523,0.0001219,53.2178,7.0222,82.1545,174.8947,-0.0005437,-8.931e-05,0.0,0 STARLINK-3447,1 51736U 22016Y   23271.91668981 -.00008931  00000-0 -54370-3 0  9991,2 51736  53.2178   7.0222 0001219  82.1545 174.8947 15.08843523  5825,6917.87,95.437,540.578,538.891,0.0
51736.0,STARLINK-3447,PAYLOAD,2023-09-29 06:00:00,15.08835479,0.0001286,53.2181,5.525,92.2345,176.3405,0.0029343,0.00046715,0.0,0 STARLINK-3447,1 51736U 22016Y   23272.25001157  .00046715  00000-0  29343-2 0  9996,2 51736  53.2181   5.5250 0001286  92.2345 176.3405 15.08835479 89961,6917.894,95.438,540.649,538.87,0.0
51736.0,STARLINK-3447,PAYLOAD,2023-09-29 14:00:01,15.08885413,0.0001369,53.2182,4.0305,84.68,195.511,-0.0057397,-0.00090599,0.0,0 STARLINK-3447,1 51736U 22016Y   23272.58334491 -.00090599  00000-0 -57397-2 0  9993,2 51736  53.2182   4.0305 0001369  84.6800 195.5110 15.08885413  5631,6917.742,95.435,540.554,538.66,0.0
51736.0,STARLINK-3447,PAYLOAD,2023-09-29 22:00:00,15.08843753,0.0001343,53.2182,2.5334,89.9924,201.8223,0.00015666,2.206e-05,0.0,0 STARLINK-3447,1 51736U 22016Y   23272.91667824  .00002206  00000-0  15666-3 0  9999,2 51736  53.2182   2.5334 0001343  89.9924 201.8223 15.08843753 90061,6917.869,95.437,540.663,538.805,0.0
51736.0,STARLINK-3447,PAYLOAD,2023-09-30 06:00:00,15.08844094,0.0001409,53.2184,1.0361,95.8319,207.5715,0.0031295,0.00049876,0.0,0 STARLINK-3447,1 51736U 22016Y   23273.25001157  .00049876  00000-0  31295-2 0  9997,2 51736  53.2184   1.0361 0001409  95.8319 207.5715 15.08844094  5743,6917.868,95.437,540.708,538.758,0.0
51736.0,STARLINK-3447,PAYLOAD,2023-10-01 00:00:00,15.08812941,0.0001385,53.2181,357.6698,77.8613,341.6577,0.0023744,0.00037675,0.0,0 STARLINK-3447,1 51736U 22016Y   23274.00001157  .00037675  00000-0  23744-2 0  9995,2 51736  53.2181 357.6698 0001385  77.8613 341.6577 15.08812941 90233,6917.963,95.439,540.786,538.87,0.0
51736.0,STARLINK-3447,PAYLOAD,2023-10-01 12:27:21,15.08852544,0.0001523,53.2193,355.3435,84.9394,275.1772,8.799e-05,1.113e-05,0.0,0 STARLINK-3447,1 51736U 22016Y   23274.51899993  .00001113  00000-0  87990-4 0  9997,2 51736  53.2193 355.3435 0001523  84.9394 275.1772 15.08852544 89171,6917.842,95.437,540.761,538.653,0.0
51736.0,STARLINK-3447,PAYLOAD,2023-10-01 15:38:07,15.08858671,0.0001362,53.2178,354.7454,82.6312,277.4835,0.00013519,1.865e-05,0.0,0 STARLINK-3447,1 51736U 22016Y   23274.65147476  .00001865  00000-0  13519-3 0  9993,2 51736  53.2178 354.7454 0001362  82.6312 277.4835 15.08858671 89198,6917.823,95.436,540.631,538.746,0.0
51736.0,STARLINK-3447,PAYLOAD,2023-10-01 21:59:40,15.0884021,0.0001546,53.2188,353.5563,78.3793,281.7372,-0.00012593,-2.292e-05,0.0,0 STARLINK-3447,1 51736U 22016Y   23274.91644448 -.00002292  00000-0 -12593-3 0  9991,2 51736  53.2188 353.5563 0001546  78.3793 281.7372 15.08840210 90361,6917.88,95.438,540.814,538.675,0.0
51736.0,STARLINK-3447,PAYLOAD,2023-10-02 12:18:09,15.08836878,0.0001506,53.2194,350.8812,94.0675,266.0489,-2.0048e-05,-6.07e-06,0.0,0 STARLINK-3447,1 51736U 22016Y   23275.51261274 -.00000607  00000-0 -20048-4 0  9993,2 51736  53.2194 350.8812 0001506  94.0675 266.0489 15.08836878 90455,6917.89,95.438,540.797,538.713,0.0
51736.0,STARLINK-3447,PAYLOAD,2023-10-03 12:08:56,15.0884678,0.0001412,53.2171,346.4192,80.4535,279.6616,0.00014695,2.052e-05,0.0,0 STARLINK-3447,1 51736U 22016Y   23276.50620854  .00002052  00000-0  14695-3 0  9990,2 51736  53.2171 346.4192 0001412  80.4535 279.6616 15.08846780 90604,6917.86,95.437,540.701,538.748,0.0
51736.0,STARLINK-3447,PAYLOAD,2023-10-03 15:19:42,15.08853719,0.000155,53.2171,345.8265,84.864,275.2529,0.00044053,6.733e-05,0.0,0 STARLINK-3447,1 51736U 22016Y   23276.63868786  .00006733  00000-0  44053-3 0  9993,2 51736  53.2171 345.8265 0001550  84.8640 275.2529 15.08853719 89496,6917.838,95.437,540.776,538.631,0.0
51736.0,STARLINK-3447,PAYLOAD,2023-10-04 10:24:20,15.08846354,0.0001559,53.2167,342.2571,87.5584,272.5587,0.00027706,4.125e-05,0.0,0 STARLINK-3447,1 51736U 22016Y   23277.43357281  .00004125  00000-0  27706-3 0  9994,2 51736  53.2167 342.2571 0001559  87.5584 272.5587 15.08846354 90749,6917.861,95.437,540.804,538.647,0.0
51736.0,STARLINK-3447,PAYLOAD,2023-10-04 11:59:43,15.08852191,0.0001487,53.2166,341.9599,89.8715,270.2447,0.00043968,6.719e-05,0.0,0 STARLINK-3447,1 51736U 22016Y   23277.49981090  .00006719  00000-0  43968-3 0  9990,2 51736  53.2166 341.9599 0001487  89.8715 270.2447 15.08852191 89626,6917.843,95.437,540.737,538.679,0.0
51736.0,STARLINK-3447,PAYLOAD,2023-10-04 21:32:02,15.08849328,0.0001401,53.216,340.1767,86.2106,273.9046,0.00034709,5.242e-05,0.0,0 STARLINK-3447,1 51736U 22016Y   23277.89724891  .00005242  00000-0  34709-3 0  9991,2 51736  53.2160 340.1767 0001401  86.2106 273.9046 15.08849328 89688,6917.852,95.437,540.686,538.748,0.0
